[{"OBJECT_NAME":"ONEWEB-0500","OBJECT_ID":"2022-138F","EPOCH":"2025-10-26T20:20:58.196256","MEAN_MOTION":13.19725005,"ECCENTRICITY":0.00019307,"INCLINATION":87.9244,"RA_OF_ASC_NODE":351.3867,"ARG_OF_PERICENTER":96.4538,"MEAN_ANOMALY":263.6815,"EPHEMERIS_TYPE":0,"CLASSIFICATION_TYPE":"U","NORAD_CAT_ID":54118,"ELEMENT_SET_NO":999,"REV_AT_EPOCH":14605,"BSTAR":8.375194e-6,"MEAN_MOTION_DOT":1.6e-7,"MEAN_MOTION_DDOT":0},{"OBJECT_NAME":"ONEWEB-0501","OBJECT_ID":"2022-138G","EPOCH":"2025-10-26T21:04:11.621856","MEAN_MOTION":13.19725342,"ECCENTRICITY":0.000198,"INCLINATION":87.9255,"RA_OF_ASC_NODE":351.3751,"ARG_OF_PERICENTER":110.4643,"MEAN_ANOMALY":249.6702,"EPHEMERIS_TYPE":0,"CLASSIFICATION_TYPE":"U","NORAD_CAT_ID":54119,"ELEMENT_SET_NO":999,"REV_AT_EPOCH":14603,"BSTAR":0.00018491454,"MEAN_MOTION_DOT":8.7e-7,"MEAN_MOTION_DDOT":0},{"OBJECT_NAME":"ONEWEB-0502","OBJECT_ID":"2022-138H","EPOCH":"2025-10-26T20:43:42.839328","MEAN_MOTION":13.19725319,"ECCENTRICITY":0.00017719,"INCLINATION":87.9252,"RA_OF_ASC_NODE":351.3603,"ARG_OF_PERICENTER":106.2714,"MEAN_ANOMALY":253.8614,"EPHEMERIS_TYPE":0,"CLASSIFICATION_TYPE":"U","NORAD_CAT_ID":54120,"ELEMENT_SET_NO":999,"REV_AT_EPOCH":14605,"BSTAR":0.00024120026,"MEAN_MOTION_DOT":1.1e-6,"MEAN_MOTION_DDOT":0},{"OBJECT_NAME":"ONEWEB-0503","OBJECT_ID":"2022-138J","EPOCH":"2025-10-26T20:27:47.279520","MEAN_MOTION":13.19725078,"ECCENTRICITY":0.00015816,"INCLINATION":87.9251,"RA_OF_ASC_NODE":351.3668,"ARG_OF_PERICENTER":96.8892,"MEAN_ANOMALY":263.2421,"EPHEMERIS_TYPE":0,"CLASSIFICATION_TYPE":"U","NORAD_CAT_ID":54121,"ELEMENT_SET_NO":999,"REV_AT_EPOCH":14604,"BSTAR":0.00023251032,"MEAN_MOTION_DOT":1.06e-6,"MEAN_MOTION_DDOT":0},{"OBJECT_NAME":"ONEWEB-0504","OBJECT_ID":"2022-138K","EPOCH":"2025-10-26T20:09:35.789184","MEAN_MOTION":13.197244,"ECCENTRICITY":0.00017183,"INCLINATION":87.9249,"RA_OF_ASC_NODE":351.3869,"ARG_OF_PERICENTER":106.2633,"MEAN_ANOMALY":253.8689,"EPHEMERIS_TYPE":0,"CLASSIFICATION_TYPE":"U","NORAD_CAT_ID":54122,"ELEMENT_SET_NO":999,"REV_AT_EPOCH":14605,"BSTAR":0.00013038522,"MEAN_MOTION_DOT":6.5e-7,"MEAN_MOTION_DDOT":0},{"OBJECT_NAME":"ONEWEB-0505","OBJECT_ID":"2022-138L","EPOCH":"2025-10-26T21:54:13.437792","MEAN_MOTION":13.1972484,"ECCENTRICITY":0.00019117,"INCLINATION":87.9252,"RA_OF_ASC_NODE":351.3605,"ARG_OF_PERICENTER":114.7589,"MEAN_ANOMALY":245.3742,"EPHEMERIS_TYPE":0,"CLASSIFICATION_TYPE":"U","NORAD_CAT_ID":54123,"ELEMENT_SET_NO":999,"REV_AT_EPOCH":14604,"BSTAR":-0.0001344784,"MEAN_MOTION_DOT":-4.1e-7,"MEAN_MOTION_DDOT":0},{"OBJECT_NAME":"ONEWEB-0506","OBJECT_ID":"2022-138M","EPOCH":"2025-10-26T21:17:49.909344","MEAN_MOTION":13.1972448,"ECCENTRICITY":0.00018692,"INCLINATION":87.9254,"RA_OF_ASC_NODE":351.3625,"ARG_OF_PERICENTER":103.7304,"MEAN_ANOMALY":256.4037,"EPHEMERIS_TYPE":0,"CLASSIFICATION_TYPE":"U","NORAD_CAT_ID":54124,"ELEMENT_SET_NO":999,"REV_AT_EPOCH":14603,"BSTAR":-7.5370922e-5,"MEAN_MOTION_DOT":-1.7e-7,"MEAN_MOTION_DDOT":0},{"OBJECT_NAME":"ONEWEB-0507","OBJECT_ID":"2022-138N","EPOCH":"2025-10-26T21:47:23.667648","MEAN_MOTION":13.1972526,"ECCENTRICITY":0.00019384,"INCLINATION":87.9235,"RA_OF_ASC_NODE":351.4019,"ARG_OF_PERICENTER":104.4484,"MEAN_ANOMALY":255.6864,"EPHEMERIS_TYPE":0,"CLASSIFICATION_TYPE":"U","NORAD_CAT_ID":54125,"ELEMENT_SET_NO":999,"REV_AT_EPOCH":14608,"BSTAR":0.0001156654,"MEAN_MOTION_DOT":5.9e-7,"MEAN_MOTION_DDOT":0},{"OBJECT_NAME":"ONEWEB-0508","OBJECT_ID":"2022-138P","EPOCH":"2025-10-26T21:42:50.868288","MEAN_MOTION":13.19725262,"ECCENTRICITY":0.00020202,"INCLINATION":87.9245,"RA_OF_ASC_NODE":351.3915,"ARG_OF_PERICENTER":108.5169,"MEAN_ANOMALY":251.6184,"EPHEMERIS_TYPE":0,"CLASSIFICATION_TYPE":"U","NORAD_CAT_ID":54126,"ELEMENT_SET_NO":999,"REV_AT_EPOCH":14606,"BSTAR":-0.00014512862,"MEAN_MOTION_DOT":-4.5e-7,"MEAN_MOTION_DDOT":0},{"OBJECT_NAME":"ONEWEB-0509","OBJECT_ID":"2022-138Q","EPOCH":"2025-10-26T21:06:27.153216","MEAN_MOTION":13.19724492,"ECCENTRICITY":0.00019179,"INCLINATION":87.9255,"RA_OF_ASC_NODE":351.3627,"ARG_OF_PERICENTER":102.2953,"MEAN_ANOMALY":257.8395,"EPHEMERIS_TYPE":0,"CLASSIFICATION_TYPE":"U","NORAD_CAT_ID":54127,"ELEMENT_SET_NO":999,"REV_AT_EPOCH":14603,"BSTAR":0.00015229255,"MEAN_MOTION_DOT":7.4e-7,"MEAN_MOTION_DDOT":0},{"OBJECT_NAME":"ONEWEB-0510","OBJECT_ID":"2022-138R","EPOCH":"2025-10-26T19:12:50.334048","MEAN_MOTION":13.20770386,"ECCENTRICITY":0.00019206,"INCLINATION":87.9194,"RA_OF_ASC_NODE":320.9839,"ARG_OF_PERICENTER":77.5331,"MEAN_ANOMALY":282.6017,"EPHEMERIS_TYPE":0,"CLASSIFICATION_TYPE":"U","NORAD_CAT_ID":54128,"ELEMENT_SET_NO":999,"REV_AT_EPOCH":14847,"BSTAR":-3.9993335e-5,"MEAN_MOTION_DOT":-3.0e-8,"MEAN_MOTION_DDOT":0},{"OBJECT_NAME":"ONEWEB-0511","OBJECT_ID":"2022-138S","EPOCH":"2025-10-26T22:51:05.170752","MEAN_MOTION":13.19725073,"ECCENTRICITY":0.00017612,"INCLINATION":87.9256,"RA_OF_ASC_NODE":351.3525,"ARG_OF_PERICENTER":104.5207,"MEAN_ANOMALY":255.6121,"EPHEMERIS_TYPE":0,"CLASSIFICATION_TYPE":"U","NORAD_CAT_ID":54129,"ELEMENT_SET_NO":999,"REV_AT_EPOCH":14607,"BSTAR":0.00014329833,"MEAN_MOTION_DOT":7.0e-7,"MEAN_MOTION_DDOT":0},{"OBJECT_NAME":"ONEWEB-0512","OBJECT_ID":"2022-138T","EPOCH":"2025-10-26T20:50:31.939008","MEAN_MOTION":13.19725612,"ECCENTRICITY":0.00018004,"INCLINATION":87.9237,"RA_OF_ASC_NODE":351.4011,"ARG_OF_PERICENTER":110.7438,"MEAN_ANOMALY":249.3887,"EPHEMERIS_TYPE":0,"CLASSIFICATION_TYPE":"U","NORAD_CAT_ID":54130,"ELEMENT_SET_NO":999,"REV_AT_EPOCH":14603,"BSTAR":9.9526715e-5,"MEAN_MOTION_DOT":5.3e-7,"MEAN_MOTION_DDOT":0},{"OBJECT_NAME":"ONEWEB-0513","OBJECT_ID":"2022-138U","EPOCH":"2025-10-26T21:28:44.391072","MEAN_MOTION":13.20317936,"ECCENTRICITY":0.00014944,"INCLINATION":87.926,"RA_OF_ASC_NODE":351.3567,"ARG_OF_PERICENTER":115.363,"MEAN_ANOMALY":244.7658,"EPHEMERIS_TYPE":0,"CLASSIFICATION_TYPE":"U","NORAD_CAT_ID":54131,"ELEMENT_SET_NO":999,"REV_AT_EPOCH":14593,"BSTAR":-6.5742988e-5,"MEAN_MOTION_DOT":-1.4e-7,"MEAN_MOTION_DDOT":0},{"OBJECT_NAME":"ONEWEB-0514","OBJECT_ID":"2022-138V","EPOCH":"2025-10-26T21:13:16.752288","MEAN_MOTION":13.19724492,"ECCENTRICITY":0.0001838,"INCLINATION":87.9246,"RA_OF_ASC_NODE":351.3784,"ARG_OF_PERICENTER":94.5098,"MEAN_ANOMALY":265.6245,"EPHEMERIS_TYPE":0,"CLASSIFICATION_TYPE":"U","NORAD_CAT_ID":54132,"ELEMENT_SET_NO":999,"REV_AT_EPOCH":14605,"BSTAR":-8.5053162e-5,"MEAN_MOTION_DOT":-2.1e-7,"MEAN_MOTION_DDOT":0},{"OBJECT_NAME":"ONEWEB-0515","OBJECT_ID":"2022-138W","EPOCH":"2025-10-26T18:54:39.347424","MEAN_MOTION":13.20770951,"ECCENTRICITY":0.00026048,"INCLINATION":87.9203,"RA_OF_ASC_NODE":320.969,"ARG_OF_PERICENTER":79.8645,"MEAN_ANOMALY":280.2782,"EPHEMERIS_TYPE":0,"CLASSIFICATION_TYPE":"U","NORAD_CAT_ID":54133,"ELEMENT_SET_NO":999,"REV_AT_EPOCH":14849,"BSTAR":4.5208572e-5,"MEAN_MOTION_DOT":3.1e-7,"MEAN_MOTION_DDOT":0}]
