ONEWEB-0500             
1 54118U 22138F   25299.84789579  .00000016  00000+0  83752-5 0  9995
2 54118  87.9244 351.3867 0001930  96.4538 263.6815 13.19725005146056
ONEWEB-0501             
1 54119U 22138G   25299.87791229  .00000087  00000+0  18491-3 0  9998
2 54119  87.9255 351.3751 0001980 110.4643 249.6702 13.19725342146031
ONEWEB-0502             
1 54120U 22138H   25299.86369027  .00000110  00000+0  24120-3 0  9999
2 54120  87.9252 351.3603 0001771 106.2714 253.8614 13.19725319146051
ONEWEB-0503             
1 54121U 22138J   25299.85263055  .00000106  00000+0  23251-3 0  9992
2 54121  87.9251 351.3668 0001581  96.8892 263.2421 13.19725078146044
ONEWEB-0504             
1 54122U 22138K   25299.83999756  .00000065  00000+0  13039-3 0  9992
2 54122  87.9249 351.3869 0001718 106.2633 253.8689 13.19724400146056
ONEWEB-0505             
1 54123U 22138L   25299.91265553 -.00000041  00000+0 -13448-3 0  9993
2 54123  87.9252 351.3605 0001911 114.7589 245.3742 13.19724840146041
ONEWEB-0506             
1 54124U 22138M   25299.88738321 -.00000017  00000+0 -75371-4 0  9995
2 54124  87.9254 351.3625 0001869 103.7304 256.4037 13.19724480146030
ONEWEB-0507             
1 54125U 22138N   25299.90791282  .00000059  00000+0  11567-3 0  9994
2 54125  87.9235 351.4019 0001938 104.4484 255.6864 13.19725260146083
ONEWEB-0508             
1 54126U 22138P   25299.90475542 -.00000045  00000+0 -14513-3 0  9994
2 54126  87.9245 351.3915 0002020 108.5169 251.6184 13.19725262146068
ONEWEB-0509             
1 54127U 22138Q   25299.87948094  .00000074  00000+0  15229-3 0  9993
2 54127  87.9255 351.3627 0001917 102.2953 257.8395 13.19724492146039
ONEWEB-0510             
1 54128U 22138R   25299.80058257 -.00000003  00000+0 -39993-4 0  9999
2 54128  87.9194 320.9839 0001920  77.5331 282.6017 13.20770386148479
ONEWEB-0511             
1 54129U 22138S   25299.95214318  .00000070  00000+0  14330-3 0  9997
2 54129  87.9256 351.3525 0001761 104.5207 255.6121 13.19725073146076
ONEWEB-0512             
1 54130U 22138T   25299.86842522  .00000053  00000+0  99527-4 0  9996
2 54130  87.9237 351.4011 0001800 110.7438 249.3887 13.19725612146031
ONEWEB-0513             
1 54131U 22138U   25299.89495823 -.00000014  00000+0 -65743-4 0  9990
2 54131  87.9260 351.3567 0001494 115.3630 244.7658 13.20317936145938
ONEWEB-0514             
1 54132U 22138V   25299.88422167 -.00000021  00000+0 -85053-4 0  9995
2 54132  87.9246 351.3784 0001838  94.5098 265.6245 13.19724492146057
ONEWEB-0515             
1 54133U 22138W   25299.78795541  .00000031  00000+0  45209-4 0  9992
2 54133  87.9203 320.9690 0002604  79.8645 280.2782 13.20770951148497
